{"fetched_at":"2026-07-21T17:53:05.430Z","source":"https://celestrak.org/NORAD/elements/gp.php?GROUP=oneweb&FORMAT=JSON","constellation":"oneweb","records":[{"OBJECT_NAME":"ONEWEB-0116","OBJECT_ID":"2021-025E","EPOCH":"2026-07-20T20:57:32.434848","CLASSIFICATION_TYPE":"U","MEAN_MOTION":13.13469772,"ECCENTRICITY":0.00018511,"INCLINATION":87.8989,"RA_OF_ASC_NODE":313.5171,"ARG_OF_PERICENTER":103.6786,"MEAN_ANOMALY":256.4549,"EPHEMERIS_TYPE":0,"NORAD_CAT_ID":48046,"ELEMENT_SET_NO":999,"REV_AT_EPOCH":25807,"BSTAR":-0.0008821404,"MEAN_MOTION_DOT":-0.00000309,"MEAN_MOTION_DDOT":0},{"OBJECT_NAME":"ONEWEB-0150","OBJECT_ID":"2021-025F","EPOCH":"2026-07-21T00:02:49.181568","CLASSIFICATION_TYPE":"U","MEAN_MOTION":13.13469784,"ECCENTRICITY":0.00018441,"INCLINATION":87.8991,"RA_OF_ASC_NODE":313.4887,"ARG_OF_PERICENTER":94.4165,"MEAN_ANOMALY":265.7175,"EPHEMERIS_TYPE":0,"NORAD_CAT_ID":48047,"ELEMENT_SET_NO":999,"REV_AT_EPOCH":25798,"BSTAR":0.00078169311,"MEAN_MOTION_DOT":0.00000298,"MEAN_MOTION_DDOT":0},{"OBJECT_NAME":"ONEWEB-0107","OBJECT_ID":"2021-025G","EPOCH":"2026-07-21T00:05:14.498592","CLASSIFICATION_TYPE":"U","MEAN_MOTION":13.13472327,"ECCENTRICITY":0.00020729,"INCLINATION":87.8991,"RA_OF_ASC_NODE":313.4842,"ARG_OF_PERICENTER":95.4781,"MEAN_ANOMALY":264.6585,"EPHEMERIS_TYPE":0,"NORAD_CAT_ID":48048,"ELEMENT_SET_NO":999,"REV_AT_EPOCH":25796,"BSTAR":0.00072730614,"MEAN_MOTION_DOT":0.00000278,"MEAN_MOTION_DDOT":0},{"OBJECT_NAME":"ONEWEB-0101","OBJECT_ID":"2021-025H","EPOCH":"2026-07-20T19:32:13.203744","CLASSIFICATION_TYPE":"U","MEAN_MOTION":13.1347175,"ECCENTRICITY":0.00021053,"INCLINATION":87.8977,"RA_OF_ASC_NODE":313.5344,"ARG_OF_PERICENTER":101.8141,"MEAN_ANOMALY":258.3225,"EPHEMERIS_TYPE":0,"NORAD_CAT_ID":48049,"ELEMENT_SET_NO":999,"REV_AT_EPOCH":25791,"BSTAR":-0.00058982545,"MEAN_MOTION_DOT":-0.00000203,"MEAN_MOTION_DDOT":0},{"OBJECT_NAME":"ONEWEB-0113","OBJECT_ID":"2021-025J","EPOCH":"2026-07-20T19:51:45.224928","CLASSIFICATION_TYPE":"U","MEAN_MOTION":13.13891066,"ECCENTRICITY":0.00018618,"INCLINATION":87.8982,"RA_OF_ASC_NODE":313.4387,"ARG_OF_PERICENTER":96.3401,"MEAN_ANOMALY":263.7941,"EPHEMERIS_TYPE":0,"NORAD_CAT_ID":48050,"ELEMENT_SET_NO":999,"REV_AT_EPOCH":25802,"BSTAR":0.00036824896,"MEAN_MOTION_DOT":0.00000148,"MEAN_MOTION_DDOT":0},{"OBJECT_NAME":"ONEWEB-0112","OBJECT_ID":"2021-025K","EPOCH":"2026-07-21T00:12:34.084512","CLASSIFICATION_TYPE":"U","MEAN_MOTION":13.13469339,"ECCENTRICITY":0.00022124,"INCLINATION":87.899,"RA_OF_ASC_NODE":313.4817,"ARG_OF_PERICENTER":100.3063,"MEAN_ANOMALY":259.8316,"EPHEMERIS_TYPE":0,"NORAD_CAT_ID":48051,"ELEMENT_SET_NO":999,"REV_AT_EPOCH":25803,"BSTAR":0.00022746789,"MEAN_MOTION_DOT":9.6e-7,"MEAN_MOTION_DDOT":0},{"OBJECT_NAME":"ONEWEB-0156","OBJECT_ID":"2021-025L","EPOCH":"2026-07-21T00:24:43.772256","CLASSIFICATION_TYPE":"U","MEAN_MOTION":13.13469173,"ECCENTRICITY":0.00019594,"INCLINATION":87.8989,"RA_OF_ASC_NODE":313.4897,"ARG_OF_PERICENTER":96.0118,"MEAN_ANOMALY":264.1235,"EPHEMERIS_TYPE":0,"NORAD_CAT_ID":48052,"ELEMENT_SET_NO":999,"REV_AT_EPOCH":25801,"BSTAR":-0.00098655739,"MEAN_MOTION_DOT":-0.00000348,"MEAN_MOTION_DDOT":0},{"OBJECT_NAME":"ONEWEB-0161","OBJECT_ID":"2021-025M","EPOCH":"2026-07-20T20:08:47.083776","CLASSIFICATION_TYPE":"U","MEAN_MOTION":13.13473248,"ECCENTRICITY":0.00020511,"INCLINATION":87.8988,"RA_OF_ASC_NODE":313.526,"ARG_OF_PERICENTER":94.8362,"MEAN_ANOMALY":265.3001,"EPHEMERIS_TYPE":0,"NORAD_CAT_ID":48053,"ELEMENT_SET_NO":999,"REV_AT_EPOCH":25792,"BSTAR":0.00099640679,"MEAN_MOTION_DOT":0.00000377,"MEAN_MOTION_DDOT":0},{"OBJECT_NAME":"ONEWEB-0158","OBJECT_ID":"2021-025N","EPOCH":"2026-07-20T20:59:59.183520","CLASSIFICATION_TYPE":"U","MEAN_MOTION":13.13471763,"ECCENTRICITY":0.000189,"INCLINATION":87.8988,"RA_OF_ASC_NODE":313.5163,"ARG_OF_PERICENTER":109.4892,"MEAN_ANOMALY":250.6442,"EPHEMERIS_TYPE":0,"NORAD_CAT_ID":48054,"ELEMENT_SET_NO":999,"REV_AT_EPOCH":25805,"BSTAR":-0.00079550283,"MEAN_MOTION_DOT":-0.00000278,"MEAN_MOTION_DDOT":0},{"OBJECT_NAME":"ONEWEB-0157","OBJECT_ID":"2021-025P","EPOCH":"2026-07-20T19:46:50.533536","CLASSIFICATION_TYPE":"U","MEAN_MOTION":13.13471719,"ECCENTRICITY":0.00022681,"INCLINATION":87.8985,"RA_OF_ASC_NODE":313.5314,"ARG_OF_PERICENTER":94.6383,"MEAN_ANOMALY":265.5005,"EPHEMERIS_TYPE":0,"NORAD_CAT_ID":48055,"ELEMENT_SET_NO":999,"REV_AT_EPOCH":25798,"BSTAR":0.00040204489,"MEAN_MOTION_DOT":0.0000016,"MEAN_MOTION_DDOT":0},{"OBJECT_NAME":"ONEWEB-0162","OBJECT_ID":"2021-025Q","EPOCH":"2026-07-21T00:41:37.544928","CLASSIFICATION_TYPE":"U","MEAN_MOTION":13.13469643,"ECCENTRICITY":0.00018611,"INCLINATION":87.8983,"RA_OF_ASC_NODE":313.4907,"ARG_OF_PERICENTER":95.8019,"MEAN_ANOMALY":264.3323,"EPHEMERIS_TYPE":0,"NORAD_CAT_ID":48056,"ELEMENT_SET_NO":999,"REV_AT_EPOCH":25798,"BSTAR":-0.00081452885,"MEAN_MOTION_DOT":-0.00000285,"MEAN_MOTION_DDOT":0},{"OBJECT_NAME":"ONEWEB-0155","OBJECT_ID":"2021-025R","EPOCH":"2026-07-21T00:51:32.521248","CLASSIFICATION_TYPE":"U","MEAN_MOTION":13.13473167,"ECCENTRICITY":0.00020809,"INCLINATION":87.8988,"RA_OF_ASC_NODE":313.4866,"ARG_OF_PERICENTER":95.4671,"MEAN_ANOMALY":264.6696,"EPHEMERIS_TYPE":0,"NORAD_CAT_ID":48057,"ELEMENT_SET_NO":999,"REV_AT_EPOCH":25812,"BSTAR":-0.0038163355,"MEAN_MOTION_DOT":-0.00001381,"MEAN_MOTION_DDOT":0},{"OBJECT_NAME":"ONEWEB-0149","OBJECT_ID":"2021-025S","EPOCH":"2026-07-21T01:23:15.839808","CLASSIFICATION_TYPE":"U","MEAN_MOTION":13.1347055,"ECCENTRICITY":0.00018361,"INCLINATION":87.8985,"RA_OF_ASC_NODE":313.486,"ARG_OF_PERICENTER":95.0671,"MEAN_ANOMALY":265.0668,"EPHEMERIS_TYPE":0,"NORAD_CAT_ID":48058,"ELEMENT_SET_NO":999,"REV_AT_EPOCH":25793,"BSTAR":0.00045007164,"MEAN_MOTION_DOT":0.00000177,"MEAN_MOTION_DDOT":0},{"OBJECT_NAME":"ONEWEB-0148","OBJECT_ID":"2021-025T","EPOCH":"2026-07-21T00:29:37.666176","CLASSIFICATION_TYPE":"U","MEAN_MOTION":13.13469238,"ECCENTRICITY":0.00018237,"INCLINATION":87.8982,"RA_OF_ASC_NODE":313.4981,"ARG_OF_PERICENTER":82.4855,"MEAN_ANOMALY":277.6481,"EPHEMERIS_TYPE":0,"NORAD_CAT_ID":48059,"ELEMENT_SET_NO":999,"REV_AT_EPOCH":25805,"BSTAR":-0.00062971855,"MEAN_MOTION_DOT":-0.00000217,"MEAN_MOTION_DDOT":0},{"OBJECT_NAME":"ONEWEB-0160","OBJECT_ID":"2021-025U","EPOCH":"2026-07-21T00:53:59.727840","CLASSIFICATION_TYPE":"U","MEAN_MOTION":13.13470053,"ECCENTRICITY":0.0001593,"INCLINATION":87.8979,"RA_OF_ASC_NODE":313.4909,"ARG_OF_PERICENTER":121.436,"MEAN_ANOMALY":238.6925,"EPHEMERIS_TYPE":0,"NORAD_CAT_ID":48060,"ELEMENT_SET_NO":999,"REV_AT_EPOCH":25800,"BSTAR":-0.00079190551,"MEAN_MOTION_DOT":-0.00000276,"MEAN_MOTION_DDOT":0},{"OBJECT_NAME":"ONEWEB-0163","OBJECT_ID":"2021-025V","EPOCH":"2026-07-20T20:52:40.457280","CLASSIFICATION_TYPE":"U","MEAN_MOTION":13.13468911,"ECCENTRICITY":0.00022117,"INCLINATION":87.899,"RA_OF_ASC_NODE":313.521,"ARG_OF_PERICENTER":95.9679,"MEAN_ANOMALY":264.1702,"EPHEMERIS_TYPE":0,"NORAD_CAT_ID":48061,"ELEMENT_SET_NO":999,"REV_AT_EPOCH":25810,"BSTAR":-0.00081689397,"MEAN_MOTION_DOT":-0.00000286,"MEAN_MOTION_DDOT":0}]}
