ONEWEB-0116             
1 48046U 21025E   26201.87329207 -.00000309  00000+0 -88214-3 0  9990
2 48046  87.8989 313.5171 0001851 103.6786 256.4549 13.13469772258070
ONEWEB-0150             
1 48047U 21025F   26202.00195812  .00000298  00000+0  78169-3 0  9993
2 48047  87.8991 313.4887 0001844  94.4165 265.7175 13.13469784257987
ONEWEB-0107             
1 48048U 21025G   26202.00364003  .00000278  00000+0  72731-3 0  9991
2 48048  87.8991 313.4842 0002072  95.4781 264.6585 13.13472327257966
ONEWEB-0101             
1 48049U 21025H   26201.81404171 -.00000203  00000+0 -58983-3 0  9994
2 48049  87.8977 313.5344 0002105 101.8141 258.3225 13.13471750257913
ONEWEB-0113             
1 48050U 21025J   26201.82760677  .00000148  00000+0  36825-3 0  9990
2 48050  87.8982 313.4387 0001861  96.3401 263.7941 13.13891066258026
ONEWEB-0112             
1 48051U 21025K   26202.00872783  .00000096  00000+0  22747-3 0  9994
2 48051  87.8990 313.4817 0002212 100.3063 259.8316 13.13469339258032
ONEWEB-0156             
1 48052U 21025L   26202.01717329 -.00000348  00000+0 -98656-3 0  9994
2 48052  87.8989 313.4897 0001959  96.0118 264.1235 13.13469173258011
ONEWEB-0161             
1 48053U 21025M   26201.83943384  .00000377  00000+0  99641-3 0  9991
2 48053  87.8988 313.5260 0002051  94.8362 265.3001 13.13473248257928
ONEWEB-0158             
1 48054U 21025N   26201.87499055 -.00000278  00000+0 -79550-3 0  9996
2 48054  87.8988 313.5163 0001890 109.4892 250.6442 13.13471763258053
ONEWEB-0157             
1 48055U 21025P   26201.82419599  .00000160  00000+0  40204-3 0  9999
2 48055  87.8985 313.5314 0002268  94.6383 265.5005 13.13471719257981
ONEWEB-0162             
1 48056U 21025Q   26202.02890677 -.00000285  00000+0 -81453-3 0  9994
2 48056  87.8983 313.4907 0001861  95.8019 264.3323 13.13469643257987
ONEWEB-0155             
1 48057U 21025R   26202.03579307 -.00001381  00000+0 -38163-2 0  9997
2 48057  87.8988 313.4866 0002080  95.4671 264.6696 13.13473167258120
ONEWEB-0149             
1 48058U 21025S   26202.05782222  .00000177  00000+0  45007-3 0  9998
2 48058  87.8985 313.4860 0001836  95.0671 265.0668 13.13470550257931
ONEWEB-0148             
1 48059U 21025T   26202.02057484 -.00000217  00000+0 -62972-3 0  9998
2 48059  87.8982 313.4981 0001823  82.4855 277.6481 13.13469238258050
ONEWEB-0160             
1 48060U 21025U   26202.03749685 -.00000276  00000+0 -79191-3 0  9998
2 48060  87.8979 313.4909 0001593 121.4360 238.6925 13.13470053258009
ONEWEB-0163             
1 48061U 21025V   26201.86991270 -.00000286  00000+0 -81689-3 0  9994
2 48061  87.8990 313.5210 0002211  95.9679 264.1702 13.13468911258103
